{"type": "FeatureCollection", "features": [ {"type": "Feature", "properties": {"norad_id": 31183, "name": "FENGYUN 1C DEB", "group": "fengyun-1c-debris", "lat": 22.64704087054744, "lon": 146.4195526538184, "alt_km": 694.5268847053312, "timestamp": "2025-12-05T09:41:19.410703+00:00", "meta": {"OBJECT_NAME": "FENGYUN 1C DEB", "OBJECT_ID": "1999-025BJM", "EPOCH": "2025-12-04T10:28:55.193952", "MEAN_MOTION": 14.50317807, "ECCENTRICITY": 0.0047115, "INCLINATION": 99.0349, "RA_OF_ASC_NODE": 321.5765, "ARG_OF_PERICENTER": 131.9663, "MEAN_ANOMALY": 19.0177, "EPHEMERIS_TYPE": 0, "CLASSIFICATION_TYPE": "U", "NORAD_CAT_ID": 31183, "ELEMENT_SET_NO": 999, "REV_AT_EPOCH": 97362, "BSTAR": 0.0029241, "MEAN_MOTION_DOT": 0.0001153, "MEAN_MOTION_DDOT": 0}, "tle": {"line1": "1 31183U 99025BJM 25338.43674993  .00011530  00000+0  29241-2 0  9996", "line2": "2 31183  99.0349 321.5765 0047115 131.9663  19.0177 14.50317807973626"}}, "geometry": {"type": "Point", "coordinates": [146.4195526538184, 22.64704087054744]}}, {"type": "Feature", "properties": {"norad_id": 31185, "name": "FENGYUN 1C DEB", "group": "fengyun-1c-debris", "lat": -79.76701374864021, "lon": 35.55457872742097, "alt_km": 916.2616085017717, "timestamp": "2025-12-05T09:41:19.410713+00:00", "meta": {"OBJECT_NAME": "FENGYUN 1C DEB", "OBJECT_ID": "1999-025BJP", "EPOCH": "2025-12-03T06:44:56.905152", "MEAN_MOTION": 14.03019915, "ECCENTRICITY": 0.0041359, "INCLINATION": 98.8321, "RA_OF_ASC_NODE": 334.0356, "ARG_OF_PERICENTER": 132.5488, "MEAN_ANOMALY": 227.9182, "EPHEMERIS_TYPE": 0, "CLASSIFICATION_TYPE": "U", "NORAD_CAT_ID": 31185, "ELEMENT_SET_NO": 999, "REV_AT_EPOCH": 62204, "BSTAR": 0.0004459, "MEAN_MOTION_DOT": 6.55e-06, "MEAN_MOTION_DDOT": 0}, "tle": {"line1": "1 31185U 99025BJP 25337.28121418  .00000655  00000+0  44590-3 0  9990", "line2": "2 31185  98.8321 334.0356 0041359 132.5488 227.9182 14.03019915622046"}}, "geometry": {"type": "Point", "coordinates": [35.55457872742097, -79.76701374864021]}}, {"type": "Feature", "properties": {"norad_id": 31186, "name": "FENGYUN 1C DEB", "group": "fengyun-1c-debris", "lat": -17.867962914827334, "lon": 71.5940929951342, "alt_km": 862.6391672298514, "timestamp": "2025-12-05T09:41:19.410723+00:00", "meta": {"OBJECT_NAME": "FENGYUN 1C DEB", "OBJECT_ID": "1999-025BJQ", "EPOCH": "2025-12-02T00:56:26.242368", "MEAN_MOTION": 14.1287731, "ECCENTRICITY": 0.00265333, "INCLINATION": 99.1774, "RA_OF_ASC_NODE": 251.1349, "ARG_OF_PERICENTER": 91.9141, "MEAN_ANOMALY": 282.1326, "EPHEMERIS_TYPE": 0, "CLASSIFICATION_TYPE": "U", "NORAD_CAT_ID": 31186, "ELEMENT_SET_NO": 999, "REV_AT_EPOCH": 95954, "BSTAR": 0.0005366123, "MEAN_MOTION_DOT": 9.55e-06, "MEAN_MOTION_DDOT": 0}, "tle": {"line1": "1 31186U 99025BJQ 25336.03919262  .00000955  00000+0  53661-3 0  9997", "line2": "2 31186  99.1774 251.1349 0026533  91.9141 282.1326 14.12877310959547"}}, "geometry": {"type": "Point", "coordinates": [71.5940929951342, -17.867962914827334]}}, {"type": "Feature", "properties": {"norad_id": 31187, "name": "FENGYUN 1C DEB", "group": "fengyun-1c-debris", "lat": -46.80044501989831, "lon": -147.99946059023213, "alt_km": 637.5707540252943, "timestamp": "2025-12-05T09:41:19.410733+00:00", "meta": {"OBJECT_NAME": "FENGYUN 1C DEB", "OBJECT_ID": "1999-025BJR", "EPOCH": "2025-12-04T09:12:55.501344", "MEAN_MOTION": 14.58818498, "ECCENTRICITY": 0.0221946, "INCLINATION": 99.2417, "RA_OF_ASC_NODE": 200.8812, "ARG_OF_PERICENTER": 249.2029, "MEAN_ANOMALY": 108.5265, "EPHEMERIS_TYPE": 0, "CLASSIFICATION_TYPE": "U", "NORAD_CAT_ID": 31187, "ELEMENT_SET_NO": 999, "REV_AT_EPOCH": 68978, "BSTAR": 0.0080711, "MEAN_MOTION_DOT": 0.00053507, "MEAN_MOTION_DDOT": 0}, "tle": {"line1": "1 31187U 99025BJR 25338.38397571  .00053507  00000+0  80711-2 0  9997", "line2": "2 31187  99.2417 200.8812 0221946 249.2029 108.5265 14.58818498689788"}}, "geometry": {"type": "Point", "coordinates": [-147.99946059023213, -46.80044501989831]}}, {"type": "Feature", "properties": {"norad_id": 31188, "name": "FENGYUN 1C DEB", "group": "fengyun-1c-debris", "lat": -42.539483645800544, "lon": 55.352319053556826, "alt_km": 789.5259510091191, "timestamp": "2025-12-05T09:41:19.410743+00:00", "meta": {"OBJECT_NAME": "FENGYUN 1C DEB", "OBJECT_ID": "1999-025BJS", "EPOCH": "2025-12-03T22:42:56.325600", "MEAN_MOTION": 14.23729706, "ECCENTRICITY": 0.00594729, "INCLINATION": 98.7496, "RA_OF_ASC_NODE": 45.7789, "ARG_OF_PERICENTER": 274.9888, "MEAN_ANOMALY": 136.787, "EPHEMERIS_TYPE": 0, "CLASSIFICATION_TYPE": "U", "NORAD_CAT_ID": 31188, "ELEMENT_SET_NO": 999, "REV_AT_EPOCH": 96211, "BSTAR": 0.0028543783, "MEAN_MOTION_DOT": 6.6e-05, "MEAN_MOTION_DDOT": 0}, "tle": {"line1": "1 31188U 99025BJS 25337.94648525  .00006600  00000+0  28544-2 0  9995", "line2": "2 31188  98.7496  45.7789 0059472 274.9888 136.7870 14.23729706962111"}}, "geometry": {"type": "Point", "coordinates": [55.352319053556826, -42.539483645800544]}}, {"type": "Feature", "properties": {"norad_id": 31190, "name": "FENGYUN 1C DEB", "group": "fengyun-1c-debris", "lat": -70.27745601041096, "lon": 18.01292849885605, "alt_km": 840.2223393156582, "timestamp": "2025-12-05T09:41:19.410753+00:00", "meta": {"OBJECT_NAME": "FENGYUN 1C DEB", "OBJECT_ID": "1999-025BJU", "EPOCH": "2025-12-03T11:50:09.463776", "MEAN_MOTION": 14.0356409, "ECCENTRICITY": 0.00673436, "INCLINATION": 98.8192, "RA_OF_ASC_NODE": 350.4986, "ARG_OF_PERICENTER": 285.6327, "MEAN_ANOMALY": 73.7416, "EPHEMERIS_TYPE": 0, "CLASSIFICATION_TYPE": "U", "NORAD_CAT_ID": 31190, "ELEMENT_SET_NO": 999, "REV_AT_EPOCH": 95417, "BSTAR": 0.00091096986, "MEAN_MOTION_DOT": 1.415e-05, "MEAN_MOTION_DDOT": 0}, "tle": {"line1": "1 31190U 99025BJU 25337.49316509  .00001415  00000+0  91097-3 0  9995", "line2": "2 31190  98.8192 350.4986 0067343 285.6327  73.7416 14.03564090954170"}}, "geometry": {"type": "Point", "coordinates": [18.01292849885605, -70.27745601041096]}}, {"type": "Feature", "properties": {"norad_id": 31191, "name": "FENGYUN 1C DEB", "group": "fengyun-1c-debris", "lat": -76.27468047714159, "lon": 20.828983313128642, "alt_km": 714.9149949475141, "timestamp": "2025-12-05T09:41:19.410763+00:00", "meta": {"OBJECT_NAME": "FENGYUN 1C DEB", "OBJECT_ID": "1999-025BJV", "EPOCH": "2025-12-04T10:49:15.388320", "MEAN_MOTION": 14.40761931, "ECCENTRICITY": 0.0091939, "INCLINATION": 98.7823, "RA_OF_ASC_NODE": 239.1188, "ARG_OF_PERICENTER": 219.3514, "MEAN_ANOMALY": 140.097, "EPHEMERIS_TYPE": 0, "CLASSIFICATION_TYPE": "U", "NORAD_CAT_ID": 31191, "ELEMENT_SET_NO": 999, "REV_AT_EPOCH": 97893, "BSTAR": 0.00073089, "MEAN_MOTION_DOT": 2.409e-05, "MEAN_MOTION_DDOT": 0}, "tle": {"line1": "1 31191U 99025BJV 25338.45087255  .00002409  00000+0  73089-3 0  9991", "line2": "2 31191  98.7823 239.1188 0091939 219.3514 140.0970 14.40761931978935"}}, "geometry": {"type": "Point", "coordinates": [20.828983313128642, -76.27468047714159]}}, {"type": "Feature", "properties": {"norad_id": 31192, "name": "FENGYUN 1C DEB", "group": "fengyun-1c-debris", "lat": -36.82403292116878, "lon": -30.212385322327723, "alt_km": 1005.8248649695806, "timestamp": "2025-12-05T09:41:19.410773+00:00", "meta": {"OBJECT_NAME": "FENGYUN 1C DEB", "OBJECT_ID": "1999-025BJW", "EPOCH": "2025-12-02T05:49:13.594080", "MEAN_MOTION": 14.20933946, "ECCENTRICITY": 0.0259415, "INCLINATION": 98.5525, "RA_OF_ASC_NODE": 320.2543, "ARG_OF_PERICENTER": 134.0886, "MEAN_ANOMALY": 228.1965, "EPHEMERIS_TYPE": 0, "CLASSIFICATION_TYPE": "U", "NORAD_CAT_ID": 31192, "ELEMENT_SET_NO": 999, "REV_AT_EPOCH": 96594, "BSTAR": 0.00031822, "MEAN_MOTION_DOT": 9.23e-06, "MEAN_MOTION_DDOT": 0}, "tle": {"line1": "1 31192U 99025BJW 25336.24251845  .00000923  00000+0  31822-3 0  9993", "line2": "2 31192  98.5525 320.2543 0259415 134.0886 228.1965 14.20933946965944"}}, "geometry": {"type": "Point", "coordinates": [-30.212385322327723, -36.82403292116878]}}, {"type": "Feature", "properties": {"norad_id": 31194, "name": "FENGYUN 1C DEB", "group": "fengyun-1c-debris", "lat": -13.752186918367737, "lon": 45.955908024885524, "alt_km": 786.4579192341816, "timestamp": "2025-12-05T09:41:19.410783+00:00", "meta": {"OBJECT_NAME": "FENGYUN 1C DEB", "OBJECT_ID": "1999-025BJY", "EPOCH": "2025-11-30T03:24:44.879904", "MEAN_MOTION": 14.36526519, "ECCENTRICITY": 0.00581842, "INCLINATION": 98.9629, "RA_OF_ASC_NODE": 222.6965, "ARG_OF_PERICENTER": 316.4214, "MEAN_ANOMALY": 43.2382, "EPHEMERIS_TYPE": 0, "CLASSIFICATION_TYPE": "U", "NORAD_CAT_ID": 31194, "ELEMENT_SET_NO": 999, "REV_AT_EPOCH": 96946, "BSTAR": 0.0012093351, "MEAN_MOTION_DOT": 3.574e-05, "MEAN_MOTION_DDOT": 0}, "tle": {"line1": "1 31194U 99025BJY 25334.14218611  .00003574  00000+0  12093-2 0  9999", "line2": "2 31194  98.9629 222.6965 0058184 316.4214  43.2382 14.36526519969460"}}, "geometry": {"type": "Point", "coordinates": [45.955908024885524, -13.752186918367737]}}, {"type": "Feature", "properties": {"norad_id": 31195, "name": "FENGYUN 1C DEB", "group": "fengyun-1c-debris", "lat": 18.861324182854332, "lon": 9.893193393011298, "alt_km": 990.6036745773454, "timestamp": "2025-12-05T09:41:19.410793+00:00", "meta": {"OBJECT_NAME": "FENGYUN 1C DEB", "OBJECT_ID": "1999-025BJZ", "EPOCH": "2025-12-04T13:07:42.866688", "MEAN_MOTION": 14.07972608, "ECCENTRICITY": 0.0171503, "INCLINATION": 98.78, "RA_OF_ASC_NODE": 12.0861, "ARG_OF_PERICENTER": 204.2856, "MEAN_ANOMALY": 155.0161, "EPHEMERIS_TYPE": 0, "CLASSIFICATION_TYPE": "U", "NORAD_CAT_ID": 31195, "ELEMENT_SET_NO": 999, "REV_AT_EPOCH": 95983, "BSTAR": 0.00023633, "MEAN_MOTION_DOT": 4.16e-06, "MEAN_MOTION_DDOT": 0}, "tle": {"line1": "1 31195U 99025BJZ 25338.54702392  .00000416  00000+0  23633-3 0  9997", "line2": "2 31195  98.7800  12.0861 0171503 204.2856 155.0161 14.07972608959832"}}, "geometry": {"type": "Point", "coordinates": [9.893193393011298, 18.861324182854332]}}]}